Origin Time       2012/01/28 03:56:00
Lat.              32.925
Long.             130.845
Depth. (km)       11
Mag.              3.0
Station Code      KMMH16
Station Lat.      32.7967
Station Long.     130.8199
Station Height(m) 55
Record Time       2012/01/28 03:56:47
Sampling Freq(Hz) 100Hz
Duration Time(s)  120
Dir.              6
Scale Factor      3920(gal)/6170801
Max. Acc. (gal)   1.714
Last Correction   2012/01/28 03:56:32
Memo.             
[...]
   14843    14842    14847    14849    14841    14839    14838    14832 
   14835    14843    14844    14842    14841    14841    14840    14834 
   14833    14841    14847    14845    14846    14849    14847    14844 
   14842    14835    14827    14827    14836    14842    14847    14853 
   14850    14844    14846    14846    14835    14830    14839    14845 
   14843    14842    14842    14840    14840    14844    14843    14839 
   14840    14841    14839    14843    14849    14847    14845    14844 
   14840    14842    14842    14834    14835    14839    14833    14830 
   14840    14847    14847    14845    14842    14842    14844    14847 
   14849    14841    14835    14840    14841    14838    14843    14847 
   14843    14839    14841    14839    14838    14843    14841    14834 
   14831    14833    14837    14844    14850    14853    14848    14839 
   14838    14840    14838    14838    14842    14843    14841    14839 
   14840    14837    14830    14833    14842    14842    14841    14844 
   14846    14848    14848    14845    14842    14836    14834    14835 
   14830    14830    14835    14836    14835    14840    14845    14844 
   14847    14851    14847    14842    14838    14836    14837    14833 
   14829    14829    14834    14842    14846    14848    14847    14840 
   14840    14845    14841    14836    14835    14836    14833    14830 
   14832    14837    14845    14849    14847    14844    14840    14837 
   14835    14832    14833    14836    14840    14844    14844    14841 
   14839    14836    14837    14841    14839    14830    14832    14838 
   14842    14846    14843    14838    14842    14844    14840    14840 
   14841    14841    14839    14838    14840    14840    14841    14849 
   14849    14841    14842    14844    14840    14839    14841    14837 
   14835    14839    14841    14840    14838    14839    14843    14844 
   14844    14846    14844    14839    14839    14841    14836    14833 
   14834    14835    14837    14841    14844    14842    14837    14839 
   14840    14833    14833    14839    14840    14841    14845    14847 
   14846    14841    14837    14838    14835    14833    14837    14835 
   14831    14835    14837    14833    14837    14845    14844    14839 
   14841    14847    14845    14839    14837    14839    14839    14833 
   14836    14841    14834    14829    14835    14834    14832    14839 
   14845    14846    14843    14841    14841    14836    14830    14832 
   14837    14836    14834    14836    14842    14842    14840    14843 
   14845    14837    14831    14835    14840    14842    14849    14855 
   14849    14839    14834    14832    14834    14832    14827    14835 
   14849    14851    14848    14847    14847    14845    14841    14838 
   14834    14831    14836    14842    14843    14840    14840    14840 
   14838    14836    14835    14838    14848    14853    14852    14847 
   14839    14834    14836    14837    14833    14831    14837    14845 
   14848    14848    14844    14840    14841    14841    14839    14841 
   14840    14835    14835    14838    14836    14831    14832    14841 
   14852    14855    14851    14840    14832    14835    14836    14834 
   14835    14840    14848    14846    14837    14837    14839    14835 
   14830    14831    14837    14840    14839    14841    14841    14836 
   14840    14849    14843    14831    14836    14845    14845    14839 
   14836    14842    14840    14829    14829    14838    14839    14839 
   14842    14844    14841    14842    14842    14839    14838    14835 
   14836    14843    14842    14835    14829    14828    14834    14842 
   14846    14847    14848    14844    14838    14833    14835    14838 
   14835    14833    14838    14840    14838    14837    14836    14839 
   14847    14847    14842    14835    14832    14835    14836    14831 
   14832    14839    14836    14835    14845    14848    14842    14841 
   14840    14839    14840    14835    14830    14834    14838    14838 
   14838    14836    14839    14849    14853    14849    14844    14841 
   14837    14835    14840    14843    14838    14839    14847    14848 
   14837    14832    14836    14844    14846    14846    14845    14831 
   14820    14831    14843    14844    14847    14847    14840    14840 
   14841    14834    14834    14844    14845    14831    14826    14837 
   14848    14847    14842    14844    14848    14845    14842    14838 
   14829    14827    14835    14842    14845    14845    14845    14846 
   14843    14841    14842    14842    14841    14838    14834    14832 
   14837    14841    14841    14840    14839    14839    14843    14845 
   14843    14842    14845    14849    14842    14833    14839    14841 
   14831    14826    14835    14842    14839    14838    14842    14847 
   14851    14846    14842    14849    14849    14837    14835    14837 
   14831    14833    14843    14846    14841    14840    14845    14843 
   14840    14841    14840    14842    14849    14844    14835    14840 
   14844    14840    14837    14841    14847    14842    14834    14836 
   14838    14839    14842    14843    14843    14844    14845    14845 
   14838    14838    14849    14850    14841    14838    14835    14835 
   14838    14838    14837    14845    14852    14848    14849    14853 
   14844    14832    14831    14832    14833    14842    14847    14841 
   14842    14846    14840    14837    14844    14847    14846    14845 
   14842    14836    14836    14842    14843    14837    14838    14842 
   14844    14845    14843    14842    14842    14841    14840    14838 
   14833    14830    14836    14845    14846    14848    14850    14842 
   14838    14838    14833    14835    14843    14844    14844    14845 
   14841    14838    14846    14849    14839    14841    14850    14848 
   14843    14843    14844    14842    14841    14840    14839    14838 
   14840    14843    14841    14842    14845    14848    14852    14853 
   14847    14840    14838    14837    14837    14837    14834    14840 
   14849    14846    14844    14849    14847    14842    14845    14842 
   14832    14833    14843    14848    14850    14852    14852    14847 
   14842    14842    14842    14842    14841    14838    14839    14839 
   14835    14836    14844    14852    14852    14848    14847    14846 
   14843    14842    14839    14837    14841    14848    14846    14842 
   14842    14842    14838    14837    14842    14845    14841    14838 
   14837    14840    14845    14846    14847    14849    14845    14842 
   14840    14838    14841    14844    14842    14841    14839    14843 
   14848    14842    14839    14847    14846    14843    14847    14848 
   14841    14837    14843    14850    14847    14841    14841    14844 
   14842    14837    14836    14837    14842    14846    14842    14839 
   14839    14839    14845    14851    14847    14842    14844    14846 
   14844    14842    14841    14839    14837    14837    14842    14842 
   14837    14839    14846    14845    14842    14843    14845    14850 
   14852    14843    14835    14834    14838    14843    14845    14847 
   14851    14850    14845    14841    14836    14832    14836    14843 
   14846    14848    14853    14853    14848    14844    14842    14839 
   14832    14832    14841    14844    14843    14848    14851    14848 
   14848    14843    14837    14843    14846    14839    14835    14838 
   14849    14856    14851    14847    14841    14837    14841    14844 
   14843    14843    14839    14837    14840    14843    14845    14852 
   14857    14853    14850    14850    14843    14836    14840    14844 
   14838    14841    14846    14846    14846    14843    14842    14848 
   14851    14849    14849    14849    14843    14838    14839    14839 
   14836    14834    14840    14849    14850    14848    14850    14852 
   14845    14838    14834    14833    14836    14840    14843    14846 
   14844    14839    14842    14841    14838    14843    14847    14841 
   14835    14834    14838    14844    14843    14844    14851    14850 
   14845    14843    14840    14837    14837    14839    14843    14848 
   14850    14845    14835    14831    14836    14836    14834    14843 
   14852    14852    14851    14853    14847    14836    14834    14835 
   14832    14830    14828    14834    14846    14849    14849    14854 
   14851    14845    14845    14839    14828    14829    14838    14848 
   14854    14851    14845    14839    14834    14838    14842    14844 
   14845    14843    14842    14845    14845    14842    14841    14846 
   14847    14839    14836    14844    14846    14838    14836    14842 
   14842    14837    14838    14849    14858    14854    14845    14845 
   14843    14830    14820    14827    14838    14838    14841    14849 
   14851    14850    14851    14851    14850    14854    14850    14835 
   14830    14835    14838    14838    14843    14847    14851    14855 
   14852    14844    14840    14842    14841    14837    14845    14850 
   14845    14842    14846    14843    14836    14829    14825    14832 
   14847    14857    14856    14849    14844    14844    14842    14838 
   14842    14847    14842    14840    14846    14843    14835    14837 
   14842    14841    14841    14837    14836    14843    14845    14846 
   14847    14845    14845    14843    14836    14835    14842    14843 
   14838    14836    14838    14841    14841    14838    14838    14840 
   14844    14850    14846    14842    14845    14843    14839    14844 
   14845    14836    14832    14832    14834    14843    14848    14844 
   14838    14835    14838    14842    14842    14844    14844    14841 
   14842    14845    14848    14849    14843    14837    14839    14838 
   14832    14833    14836    14833    14836    14846    14851    14852 
   14847    14841    14838    14840    14843    14841    14837    14840 
   14841    14839    14840    14833    14824    14833    14845    14847 
   14847    14850    14853    14851    14840    14831    14832    14833 
   14836    14842    14846    14845    14848    14851    14846    14837 
   14834    14838    14838    14838    14845    14849    14846    14837 
   14828    14832    14842    14845    14845    14846    14845    14840 
   14837    14837    14836    14839    14844    14845    14844    14841 
   14835    14836    14838    14831    14828    14832    14837    14849 
   14856    14852    14851    14851    14841    14831    14826    14822 
   14827    14839    14843    14844    14847    14847    14842    14840 
   14843    14840    14834    14838    14841    14842    14848    14852 
   14845    14838    14838    14840    14838    14836    14834    14835 
   14844    14848    14841    14842    14847    14843    14840    14841 
   14839    14839    14843    14845    14842    14837    14836    14835 
   14836    14838    14841    14849    14853    14842    14838    14844 
   14841    14831    14828    14829    14829    14834    14842    14843 
   14842    14845    14846    14844    14839    14830    14828    14836 
   14842    14845    14850    14850    14846    14841    14837    14839 
   14838    14830    14831    14838    14840    14840    14840    14845 
   14852    14850    14846    14843    14838    14838    14841    14838 
   14838    14844    14844    14842    14837    14829    14833    14845 
   14853    14855    14849    14840    14833    14830    14833    14839 
   14840    14837    14841    14848    14844    14837    14838    14845 
   14845    14841    14843    14848    14844    14837    14832    14834 
   14841    14842    14838    14838    14836    14834    14836    14840 
   14841    14841    14840    14837    14834    14837    14846    14845 
   14839    14837    14834    14829    14833    14842    14845    14846 
   14848    14846    14842    14833    14822    14817    14825    14842 
   14847    14844    14847    14852    14850    14843    14839    14841 
   14842    14838    14833    14832    14835    14839    14839    14839 
   14841    14842    14842    14839    14831    14828    14833    14841 
   14848    14846    14841    14844    14847    14843    14840    14840 
   14838    14838    14841    14842    14841    14842    14840    14838 
   14838    14839    14838    14837    14838    14841    14843    14840 
   14836    14841    14840    14832    14834    14843    14847    14850 
   14851    14847    14841    14836    14834    14833    14830    14833 
   14842    14847    14847    14843    14840    14844    14847    14844 
   14840    14835    14835    14839    14840    14838    14840    14841 
   14839    14842    14845    14840    14835    14836    14837    14835 
   14840    14844    14842    14843    14846    14843    14841    14843 
   14844    14839    14833    14833    14836    14841    14847    14845 
   14842    14842    14843    14837    14832    14837    14839    14837 
   14840    14843    14844    14846    14848    14847    14844    14841 
   14840    14841    14840    14839    14845    14849    14846    14843 
   14841    14839    14840    14837    14833    14837    14840    14839 
   14841    14842    14844    14844    14840    14838    14842    14846 
   14845    14840    14835    14838    14839    14836    14838    14845 
   14849    14845    14841    14846    14847    14837    14833    14838 
   14839    14837    14841    14843    14843    14844    14841    14836 
   14839    14843    14844    14840    14839    14844    14849    14854 
   14865    14896    14980    15150    15412    15734    15987    15958 
   15489    14579    13452    12509    12142    12501    13348    14209 
   14891    15483    15677    15472    15896    16829    16995    16675 
   16424    15659    14542    14080    14129    13615    13029    13539 
   14725    15472    14813    13349    13075    14224    15513    15871 
   15480    15806    16640    16234    14854    14348    14754    14579 
   14160    14638    15138    14543    13629    13825    14922    15396 
   14871    14654    15295    15520    15104    14989    15115    15355 
   15251    14327    13934    15056    15955    14925    13598    14118 
   15255    14911    14033    14639    15481    14764    14018    14489 
   15140    15301    15333    15432    15358    15035    14599    14206 
   14324    15154    15662    15162    14742    14852    14469    13694 
   13967    15131    15459    15094    15107    14834    13977    13874 
   14923    15802    15936    15876    15631    15080    14218    13384 
   13741    15032    15528    15011    14491    14348    14408    14533 
   14798    15433    16037    15958    15543    15106    14413    13781 
   13613    13894    14317    14617    15010    15376    15296    14875 
   14552    14886    15528    15644    15612    15646    15206    14431 
   13823    13751    14238    14751    14987    14926    14617    14510 
   14663    14672    14793    15371    15937    15961    15493    14901 
   14599    14425    14138    14501    15196    14938    14473    14574 
   14479    14122    14066    14581    15228    15133    14627    14743 
   15448    15963    15965    15528    14771    14117    13911    14298 
   15031    15363    15263    14921    14446    14335    14384    14549 
   15159    15618    15545    14902    13771    13224    13857    14955 
   15969    16475    16075    15185    14264    13631    13936    14944 
   15573    15473    15024    14487    14157    14459    14953    14930 
   14810    14964    15117    15102    14764    14439    14639    15034 
   15146    14961    14753    14678    14632    14488    14123    13796 
   14084    14909    15638    16057    16188    16148    16178    15872 
   15145    14598    14194    13986    14093    14112    13967    13564 
   13100    13491    14669    15543    15614    15150    14878    15236 
   15813    16284    16452    16109    15666    15320    14971    14511 
   13439    12403    12604    13368    13800    14182    14696    15365 
   16108    16405    16040    15628    15654    15778    15759    15522 
   14685    13631    13473    14240    14829    14700    14221    13968 
   14397    15173    15343    14968    14995    15411    15603    15820 
   16055    15325    13930    13627    14529    15060    14736    14146 
   13744    13830    14311    14814    15112    15094    14861    14885 
   15334    15575    15240    14828    14988    15576    15696    15239 
   14888    14843    14828    14525    13947    13579    13874    14562 
   14932    14834    14493    14195    14458    15356    16198    16341 
   15942    15564    15211    14834    14749    14872    14995    14976 
   14715    14446    13781    12590    12282    13375    14674    15312 
   15333    15165    15232    15718    16212    16216    15986    15914 
   15908    15497    14525    13711    13574    13975    14635    15135 
   15076    14380    13766    14058    14646    14849    15334    16011 
   15849    15408    15381    14987    14272    13805    13653    14098 
   14663    14727    14684    14773    15006    15354    15509    15445 
   15386    15268    14852    14511    15050    15875    15570    14583 
   14164    14095    13831    13745    14357    15172    15126    14371 
   14079    14720    15539    15617    15192    15023    15043    14857 
   14502    14416    14878    15351    15383    15443    15724    15614 
   14945    14361    14219    14304    14462    14593    14538    14288 
   14118    14196    14201    14229    14694    15123    15241    15500 
   15775    15716    15418    15277    15583    15738    15147    14435 
   14249    14294    14195    14128    14312    14455    14514    14881 
   15280    15222    14809    14408    14587    15355    15775    15497 
   15010    14494    14230    14572    15001    14874    14443    14329 
   14604    14847    14943    14959    14815    14818    15216    15520 
   15292    14705    14359    14547    14942    15428    15652    15109 
   14459    14321    14453    14677    14855    14940    14893    14702 
   14655    14693    14575    14428    14524    15061    15585    15507 
   15198    15121    15001    14673    14399    14222    14156    14418 
   14726    14751    14835    15108    15292    15288    15140    15044 
   15099    15033    14761    14582    14579    14484    14266    14364 
   14749    14746    14524    14793    15278    15371    15164    15201 
   15616    15783    15425    14910    14439    14245    14428    14631 
   14730    14752    14650    14676    14844    14932    14990    14728 
   14126    13991    14495    15197    15710    15638    15201    14826 
   14601    14605    14615    14467    14389    14403    14531    14816 
   15009    15112    15272    15358    15375    15355    15140    14872 
   14751    14696    14707    14666    14467    14480    14780    15015 
   15113    15084    14841    14505    14437    14689    14810    14643 
   14599    14958    15371    15378    15086    14708    14362    14458 
   15062    15517    15372    14896    14571    14581    14738    14821 
   14844    14777    14619    14631    14792    14766    14661    14832 
   15154    15175    14905    14790    14839    14845    14911    15059 
   15069    14779    14495    14599    14798    14761    14661    14774 
   15095    15162    14725    14283    14324    14768    15275    15484 
   15307    15075    14914    14730    14671    14705    14675    14700 
   14739    14714    14676    14544    14442    14543    14821    15214 
